ORBCOMM FM37            
1 33064U 08031E   24344.52367198  .00004074  00000+0  58140-3 0  9991
2 33064  48.4377 164.4537 0006325 272.8048 119.4121 14.78398253885974
ORBCOMM FM40            
1 33065U 08031F   24344.50090132  .00005985  00000+0  80461-3 0  9994
2 33065  48.4399 151.5214 0007641 282.9499 112.6275 14.80255290886042
ORBCOMM FM109           
1 40086U 14040A   24344.62490045  .00001559  00000+0  37523-3 0  9996
2 40086  47.0016 191.1614 0002239 175.6452 184.4453 14.57675130553402
ORBCOMM FM106           
1 40088U 14040C   24344.54573865  .00003127  00000+0  56479-3 0  9995
2 40088  47.0608  29.6658 0018425 267.6739  92.2041 14.68466731555596
ORBCOMM FM111           
1 40089U 14040D   24344.47911558  .00007159  00000+0  86067-3 0  9998
2 40089  47.0020 265.0899 0031044   5.6201 354.5038 14.84328168562029
ORBCOMM FM104           
1 40090U 14040E   24344.37841999  .00001629  00000+0  40384-3 0  9998
2 40090  47.0034 224.7330 0016285  57.6478 302.5981 14.56056741552956
